COSMOS 2251 DEB         
1 34276U 93036LW  26094.82396027  .00005017  00000+0  10931-2 0  9999
2 34276  74.0230 230.1686 0022293 343.7711 167.6975 14.58036827902400
COSMOS 2251 DEB         
1 34297U 93036MT  26095.19114333  .00000468  00000+0  16731-3 0  9991
2 34297  74.0467  75.8874 0016159 124.3058 252.4700 14.36734037896943
COSMOS 2251 DEB         
1 34301U 93036MX  26095.00161887  .00019733  00000+0  19490-2 0  9992
2 34301  74.0023 300.2808 0005012 359.9462 160.7349 14.91895133900852
COSMOS 2251 DEB         
1 34302U 93036MY  26094.97268182  .00003645  00000+0  11246-2 0  9990
2 34302  74.1771 276.2630 0078085  99.6087  26.0773 14.39968258893509
COSMOS 2251 DEB         
1 34303U 93036MZ  26095.30587490  .00005563  00000+0  11228-2 0  9996
2 34303  74.0040  72.4889 0136269 184.7682 299.2860 14.55904869896146
COSMOS 2251 DEB         
1 34304U 93036NA  26094.94292191  .00004098  00000+0  12202-2 0  9992
2 34304  74.0112 273.6015 0126712  24.4591  96.3185 14.38846277889242
COSMOS 2251 DEB         
1 34307U 93036ND  26095.10158009  .00000905  00000+0  82966-3 0  9991
2 34307  74.0515 131.1839 0393290 297.2267  90.2817 13.54520617843970
COSMOS 2251 DEB         
1 34314U 93036NL  26095.02940301  .00000961  00000+0  45880-3 0  9990
2 34314  74.0027 106.1583 0104811 187.5920 192.6516 14.17726977882636
COSMOS 2251 DEB         
1 34316U 93036NN  26094.44180780  .00034973  00000+0  29832-2 0  9992
2 34316  74.0607 110.1299 0011510 210.5970 149.4546 14.97507542908934
COSMOS 2251 DEB         
1 34317U 93036NP  26095.28365819  .00001342  00000+0  11397-2 0  9995
2 34317  73.9242 208.7942 0336248 176.9852 212.2388 13.65315040851696
COSMOS 2251 DEB         
1 34321U 93036NT  26094.90745473  .00002432  00000+0  62602-3 0  9993
2 34321  74.0283 303.6443 0014455  46.0539  67.9323 14.50605452901279
COSMOS 2251 DEB         
1 34323U 93036NV  26094.88975737  .00016195  00000+0  21834-2 0  9992
2 34323  73.9508 260.3870 0055202 277.8969 244.2624 14.78079027901095
COSMOS 2251 DEB         
1 34325U 93036NX  26095.18206348  .00003837  00000+0  20325-2 0  9996
2 34325  73.8733 352.8163 0190215 348.9855 137.1351 14.05183842871089
COSMOS 2251 DEB         
1 34327U 93036NZ  26095.05047991  .00014225  00000+0  13717-2 0  9991
2 34327  73.9921 304.2466 0031396  96.5304  59.3089 14.92545875911966
COSMOS 2251 DEB         
1 34340U 93036PN  26095.13209686  .00001068  00000+0  76526-3 0  9995
2 34340  74.0752 118.5080 0290433 201.2966 231.2955 13.79984741858327
COSMOS 2251 DEB         
1 34343U 93036PR  26095.14921929  .00012059  00000+0  19295-2 0  9991
2 34343  74.0193 229.2412 0020415 116.8214  59.5126 14.71702405903977
