[{"OBJECT_NAME":"COSMOS 2251 DEB","OBJECT_ID":"1993-036LW","EPOCH":"2026-04-04T19:46:30.167328","MEAN_MOTION":14.58036827,"ECCENTRICITY":0.00222932,"INCLINATION":74.023,"RA_OF_ASC_NODE":230.1686,"ARG_OF_PERICENTER":343.7711,"MEAN_ANOMALY":167.6975,"EPHEMERIS_TYPE":0,"CLASSIFICATION_TYPE":"U","NORAD_CAT_ID":34276,"ELEMENT_SET_NO":999,"REV_AT_EPOCH":90240,"BSTAR":0.0010930684,"MEAN_MOTION_DOT":5.017e-5,"MEAN_MOTION_DDOT":0},{"OBJECT_NAME":"COSMOS 2251 DEB","OBJECT_ID":"1993-036MT","EPOCH":"2026-04-05T04:35:14.783712","MEAN_MOTION":14.36734037,"ECCENTRICITY":0.00161592,"INCLINATION":74.0467,"RA_OF_ASC_NODE":75.8874,"ARG_OF_PERICENTER":124.3058,"MEAN_ANOMALY":252.47,"EPHEMERIS_TYPE":0,"CLASSIFICATION_TYPE":"U","NORAD_CAT_ID":34297,"ELEMENT_SET_NO":999,"REV_AT_EPOCH":89694,"BSTAR":0.0001673105,"MEAN_MOTION_DOT":4.68e-6,"MEAN_MOTION_DDOT":0},{"OBJECT_NAME":"COSMOS 2251 DEB","OBJECT_ID":"1993-036MX","EPOCH":"2026-04-05T00:02:19.870368","MEAN_MOTION":14.91895133,"ECCENTRICITY":0.00050123,"INCLINATION":74.0023,"RA_OF_ASC_NODE":300.2808,"ARG_OF_PERICENTER":359.9462,"MEAN_ANOMALY":160.7349,"EPHEMERIS_TYPE":0,"CLASSIFICATION_TYPE":"U","NORAD_CAT_ID":34301,"ELEMENT_SET_NO":999,"REV_AT_EPOCH":90085,"BSTAR":0.0019490354,"MEAN_MOTION_DOT":0.00019733,"MEAN_MOTION_DDOT":0},{"OBJECT_NAME":"COSMOS 2251 DEB","OBJECT_ID":"1993-036MY","EPOCH":"2026-04-04T23:20:39.709248","MEAN_MOTION":14.39968258,"ECCENTRICITY":0.00780857,"INCLINATION":74.1771,"RA_OF_ASC_NODE":276.263,"ARG_OF_PERICENTER":99.6087,"MEAN_ANOMALY":26.0773,"EPHEMERIS_TYPE":0,"CLASSIFICATION_TYPE":"U","NORAD_CAT_ID":34302,"ELEMENT_SET_NO":999,"REV_AT_EPOCH":89350,"BSTAR":0.0011245578,"MEAN_MOTION_DOT":3.645e-5,"MEAN_MOTION_DDOT":0},{"OBJECT_NAME":"COSMOS 2251 DEB","OBJECT_ID":"1993-036MZ","EPOCH":"2026-04-05T07:20:27.591360","MEAN_MOTION":14.55904869,"ECCENTRICITY":0.01362692,"INCLINATION":74.004,"RA_OF_ASC_NODE":72.4889,"ARG_OF_PERICENTER":184.7682,"MEAN_ANOMALY":299.286,"EPHEMERIS_TYPE":0,"CLASSIFICATION_TYPE":"U","NORAD_CAT_ID":34303,"ELEMENT_SET_NO":999,"REV_AT_EPOCH":89614,"BSTAR":0.0011227808,"MEAN_MOTION_DOT":5.563e-5,"MEAN_MOTION_DDOT":0},{"OBJECT_NAME":"COSMOS 2251 DEB","OBJECT_ID":"1993-036NA","EPOCH":"2026-04-04T22:37:48.453024","MEAN_MOTION":14.38846277,"ECCENTRICITY":0.01267124,"INCLINATION":74.0112,"RA_OF_ASC_NODE":273.6015,"ARG_OF_PERICENTER":24.4591,"MEAN_ANOMALY":96.3185,"EPHEMERIS_TYPE":0,"CLASSIFICATION_TYPE":"U","NORAD_CAT_ID":34304,"ELEMENT_SET_NO":999,"REV_AT_EPOCH":88924,"BSTAR":0.001220191,"MEAN_MOTION_DOT":4.098e-5,"MEAN_MOTION_DDOT":0},{"OBJECT_NAME":"COSMOS 2251 DEB","OBJECT_ID":"1993-036ND","EPOCH":"2026-04-05T02:26:16.519776","MEAN_MOTION":13.54520617,"ECCENTRICITY":0.03932909,"INCLINATION":74.0515,"RA_OF_ASC_NODE":131.1839,"ARG_OF_PERICENTER":297.2267,"MEAN_ANOMALY":90.2817,"EPHEMERIS_TYPE":0,"CLASSIFICATION_TYPE":"U","NORAD_CAT_ID":34307,"ELEMENT_SET_NO":999,"REV_AT_EPOCH":84397,"BSTAR":0.00082965981,"MEAN_MOTION_DOT":9.05e-6,"MEAN_MOTION_DDOT":0},{"OBJECT_NAME":"COSMOS 2251 DEB","OBJECT_ID":"1993-036NL","EPOCH":"2026-04-05T00:42:20.420064","MEAN_MOTION":14.17726977,"ECCENTRICITY":0.01048119,"INCLINATION":74.0027,"RA_OF_ASC_NODE":106.1583,"ARG_OF_PERICENTER":187.592,"MEAN_ANOMALY":192.6516,"EPHEMERIS_TYPE":0,"CLASSIFICATION_TYPE":"U","NORAD_CAT_ID":34314,"ELEMENT_SET_NO":999,"REV_AT_EPOCH":88263,"BSTAR":0.00045880016,"MEAN_MOTION_DOT":9.61e-6,"MEAN_MOTION_DDOT":0},{"OBJECT_NAME":"COSMOS 2251 DEB","OBJECT_ID":"1993-036NN","EPOCH":"2026-04-04T10:36:12.193920","MEAN_MOTION":14.97507542,"ECCENTRICITY":0.00115105,"INCLINATION":74.0607,"RA_OF_ASC_NODE":110.1299,"ARG_OF_PERICENTER":210.597,"MEAN_ANOMALY":149.4546,"EPHEMERIS_TYPE":0,"CLASSIFICATION_TYPE":"U","NORAD_CAT_ID":34316,"ELEMENT_SET_NO":999,"REV_AT_EPOCH":90893,"BSTAR":0.0029832115,"MEAN_MOTION_DOT":0.00034973,"MEAN_MOTION_DDOT":0},{"OBJECT_NAME":"COSMOS 2251 DEB","OBJECT_ID":"1993-036NP","EPOCH":"2026-04-05T06:48:28.067616","MEAN_MOTION":13.6531504,"ECCENTRICITY":0.03362489,"INCLINATION":73.9242,"RA_OF_ASC_NODE":208.7942,"ARG_OF_PERICENTER":176.9852,"MEAN_ANOMALY":212.2388,"EPHEMERIS_TYPE":0,"CLASSIFICATION_TYPE":"U","NORAD_CAT_ID":34317,"ELEMENT_SET_NO":999,"REV_AT_EPOCH":85169,"BSTAR":0.001139667,"MEAN_MOTION_DOT":1.342e-5,"MEAN_MOTION_DDOT":0},{"OBJECT_NAME":"COSMOS 2251 DEB","OBJECT_ID":"1993-036NT","EPOCH":"2026-04-04T21:46:44.088672","MEAN_MOTION":14.50605452,"ECCENTRICITY":0.00144555,"INCLINATION":74.0283,"RA_OF_ASC_NODE":303.6443,"ARG_OF_PERICENTER":46.0539,"MEAN_ANOMALY":67.9323,"EPHEMERIS_TYPE":0,"CLASSIFICATION_TYPE":"U","NORAD_CAT_ID":34321,"ELEMENT_SET_NO":999,"REV_AT_EPOCH":90127,"BSTAR":0.00062601709,"MEAN_MOTION_DOT":2.432e-5,"MEAN_MOTION_DDOT":0},{"OBJECT_NAME":"COSMOS 2251 DEB","OBJECT_ID":"1993-036NV","EPOCH":"2026-04-04T21:21:15.036768","MEAN_MOTION":14.78079027,"ECCENTRICITY":0.00552021,"INCLINATION":73.9508,"RA_OF_ASC_NODE":260.387,"ARG_OF_PERICENTER":277.8969,"MEAN_ANOMALY":244.2624,"EPHEMERIS_TYPE":0,"CLASSIFICATION_TYPE":"U","NORAD_CAT_ID":34323,"ELEMENT_SET_NO":999,"REV_AT_EPOCH":90109,"BSTAR":0.0021833733,"MEAN_MOTION_DOT":0.00016195,"MEAN_MOTION_DDOT":0},{"OBJECT_NAME":"COSMOS 2251 DEB","OBJECT_ID":"1993-036NX","EPOCH":"2026-04-05T04:22:10.284672","MEAN_MOTION":14.05183842,"ECCENTRICITY":0.01902151,"INCLINATION":73.8733,"RA_OF_ASC_NODE":352.8163,"ARG_OF_PERICENTER":348.9855,"MEAN_ANOMALY":137.1351,"EPHEMERIS_TYPE":0,"CLASSIFICATION_TYPE":"U","NORAD_CAT_ID":34325,"ELEMENT_SET_NO":999,"REV_AT_EPOCH":87108,"BSTAR":0.0020325295,"MEAN_MOTION_DOT":3.837e-5,"MEAN_MOTION_DDOT":0},{"OBJECT_NAME":"COSMOS 2251 DEB","OBJECT_ID":"1993-036NZ","EPOCH":"2026-04-05T01:12:41.464224","MEAN_MOTION":14.92545875,"ECCENTRICITY":0.00313969,"INCLINATION":73.9921,"RA_OF_ASC_NODE":304.2466,"ARG_OF_PERICENTER":96.5304,"MEAN_ANOMALY":59.3089,"EPHEMERIS_TYPE":0,"CLASSIFICATION_TYPE":"U","NORAD_CAT_ID":34327,"ELEMENT_SET_NO":999,"REV_AT_EPOCH":91196,"BSTAR":0.0013716781,"MEAN_MOTION_DOT":0.00014225,"MEAN_MOTION_DDOT":0},{"OBJECT_NAME":"COSMOS 2251 DEB","OBJECT_ID":"1993-036PN","EPOCH":"2026-04-05T03:10:13.168704","MEAN_MOTION":13.79984741,"ECCENTRICITY":0.02904332,"INCLINATION":74.0752,"RA_OF_ASC_NODE":118.508,"ARG_OF_PERICENTER":201.2966,"MEAN_ANOMALY":231.2955,"EPHEMERIS_TYPE":0,"CLASSIFICATION_TYPE":"U","NORAD_CAT_ID":34340,"ELEMENT_SET_NO":999,"REV_AT_EPOCH":85832,"BSTAR":0.00076526284,"MEAN_MOTION_DOT":1.068e-5,"MEAN_MOTION_DDOT":0},{"OBJECT_NAME":"COSMOS 2251 DEB","OBJECT_ID":"1993-036PR","EPOCH":"2026-04-05T03:34:52.546656","MEAN_MOTION":14.71702405,"ECCENTRICITY":0.0020415,"INCLINATION":74.0193,"RA_OF_ASC_NODE":229.2412,"ARG_OF_PERICENTER":116.8214,"MEAN_ANOMALY":59.5126,"EPHEMERIS_TYPE":0,"CLASSIFICATION_TYPE":"U","NORAD_CAT_ID":34343,"ELEMENT_SET_NO":999,"REV_AT_EPOCH":90397,"BSTAR":0.0019294538,"MEAN_MOTION_DOT":0.00012059,"MEAN_MOTION_DDOT":0}]
